[{"OBJECT_NAME":"STARLINK-5761","OBJECT_ID":"2023-020AG","EPOCH":"2026-03-09T14:51:33.931008","MEAN_MOTION":15.02916645,"ECCENTRICITY":0.0001047,"INCLINATION":43.0004,"RA_OF_ASC_NODE":352.4704,"ARG_OF_PERICENTER":272.4252,"MEAN_ANOMALY":87.6471,"EPHEMERIS_TYPE":0,"CLASSIFICATION_TYPE":"U","NORAD_CAT_ID":55599,"ELEMENT_SET_NO":999,"REV_AT_EPOCH":16905,"BSTAR":0.0034112,"MEAN_MOTION_DOT":0.00046654,"MEAN_MOTION_DDOT":0},{"OBJECT_NAME":"CZ-6A DEB","OBJECT_ID":"2022-151NM","EPOCH":"2026-03-09T04:15:16.361280","MEAN_MOTION":14.99821734,"ECCENTRICITY":0.00563118,"INCLINATION":98.6044,"RA_OF_ASC_NODE":155.614,"ARG_OF_PERICENTER":130.481,"MEAN_ANOMALY":230.1339,"EPHEMERIS_TYPE":0,"CLASSIFICATION_TYPE":"U","NORAD_CAT_ID":54611,"ELEMENT_SET_NO":999,"REV_AT_EPOCH":17682,"BSTAR":0.0044540946,"MEAN_MOTION_DOT":0.00057345,"MEAN_MOTION_DDOT":0}]
